{"type": "FeatureCollection", "features": [ {"type": "Feature", "properties": {"norad_id": 66835, "name": "STARLINK-35890", "group": "last-30-days", "lat": -27.491420396859752, "lon": 26.76176817492782, "alt_km": 341.5363146163345, "timestamp": "2025-12-13T18:50:03.174441+00:00", "meta": {"OBJECT_NAME": "STARLINK-35890", "OBJECT_ID": "2025-280Q", "EPOCH": "2025-12-13T07:18:03.947904", "MEAN_MOTION": 15.78472286, "ECCENTRICITY": 0.00030767, "INCLINATION": 69.9916, "RA_OF_ASC_NODE": 197.1981, "ARG_OF_PERICENTER": 284.5793, "MEAN_ANOMALY": 75.5066, "EPHEMERIS_TYPE": 0, "CLASSIFICATION_TYPE": "U", "NORAD_CAT_ID": 66835, "ELEMENT_SET_NO": 999, "REV_AT_EPOCH": 301, "BSTAR": -0.0042738567, "MEAN_MOTION_DOT": -0.00686544, "MEAN_MOTION_DDOT": 0}, "tle": {"line1": "1 66835U 25280Q   25347.30421236 -.00686544  00000+0 -42739-2 0  9998", "line2": "2 66835  69.9916 197.1981 0003076 284.5793  75.5066 15.78472286  3013"}}, "geometry": {"type": "Point", "coordinates": [26.76176817492782, -27.491420396859752]}}, {"type": "Feature", "properties": {"norad_id": 66836, "name": "STARLINK-35838", "group": "last-30-days", "lat": -29.97551102467002, "lon": 27.960103713446305, "alt_km": 340.30997904082324, "timestamp": "2025-12-13T18:50:03.174457+00:00", "meta": {"OBJECT_NAME": "STARLINK-35838", "OBJECT_ID": "2025-280R", "EPOCH": "2025-12-13T04:15:00.565632", "MEAN_MOTION": 15.78955191, "ECCENTRICITY": 0.00042084, "INCLINATION": 69.992, "RA_OF_ASC_NODE": 197.5573, "ARG_OF_PERICENTER": 272.961, "MEAN_ANOMALY": 87.1108, "EPHEMERIS_TYPE": 0, "CLASSIFICATION_TYPE": "U", "NORAD_CAT_ID": 66836, "ELEMENT_SET_NO": 999, "REV_AT_EPOCH": 299, "BSTAR": -0.0047166842, "MEAN_MOTION_DOT": -0.00767648, "MEAN_MOTION_DDOT": 0}, "tle": {"line1": "1 66836U 25280R   25347.17708988 -.00767648  00000+0 -47167-2 0  9991", "line2": "2 66836  69.9920 197.5573 0004208 272.9610  87.1108 15.78955191  2990"}}, "geometry": {"type": "Point", "coordinates": [27.960103713446305, -29.97551102467002]}}, {"type": "Feature", "properties": {"norad_id": 66837, "name": "STARLINK-35729", "group": "last-30-days", "lat": -32.16009397035192, "lon": 29.070474056434332, "alt_km": 339.51147050154214, "timestamp": "2025-12-13T18:50:03.174467+00:00", "meta": {"OBJECT_NAME": "STARLINK-35729", "OBJECT_ID": "2025-280S", "EPOCH": "2025-12-13T05:45:44.617536", "MEAN_MOTION": 15.78889066, "ECCENTRICITY": 0.00038179, "INCLINATION": 69.9909, "RA_OF_ASC_NODE": 197.3755, "ARG_OF_PERICENTER": 276.6998, "MEAN_ANOMALY": 83.3767, "EPHEMERIS_TYPE": 0, "CLASSIFICATION_TYPE": "U", "NORAD_CAT_ID": 66837, "ELEMENT_SET_NO": 999, "REV_AT_EPOCH": 300, "BSTAR": -0.0028517487, "MEAN_MOTION_DOT": -0.00478257, "MEAN_MOTION_DDOT": 0}, "tle": {"line1": "1 66837U 25280S   25347.24009974 -.00478257  00000+0 -28517-2 0  9992", "line2": "2 66837  69.9909 197.3755 0003817 276.6998  83.3767 15.78889066  3002"}}, "geometry": {"type": "Point", "coordinates": [29.070474056434332, -32.16009397035192]}}, {"type": "Feature", "properties": {"norad_id": 66838, "name": "STARLINK-35886", "group": "last-30-days", "lat": -34.95515519998961, "lon": 30.57786228922379, "alt_km": 341.20457952099423, "timestamp": "2025-12-13T18:50:03.174477+00:00", "meta": {"OBJECT_NAME": "STARLINK-35886", "OBJECT_ID": "2025-280T", "EPOCH": "2025-12-13T07:16:02.809056", "MEAN_MOTION": 15.78542556, "ECCENTRICITY": 0.00037329, "INCLINATION": 69.9923, "RA_OF_ASC_NODE": 197.1922, "ARG_OF_PERICENTER": 287.9465, "MEAN_ANOMALY": 72.1328, "EPHEMERIS_TYPE": 0, "CLASSIFICATION_TYPE": "U", "NORAD_CAT_ID": 66838, "ELEMENT_SET_NO": 999, "REV_AT_EPOCH": 301, "BSTAR": -0.0036556848, "MEAN_MOTION_DOT": -0.00595492, "MEAN_MOTION_DDOT": 0}, "tle": {"line1": "1 66838U 25280T   25347.30281029 -.00595492  00000+0 -36557-2 0  9997", "line2": "2 66838  69.9923 197.1922 0003732 287.9465  72.1328 15.78542556  3013"}}, "geometry": {"type": "Point", "coordinates": [30.57786228922379, -34.95515519998961]}}, {"type": "Feature", "properties": {"norad_id": 66839, "name": "STARLINK-35717", "group": "last-30-days", "lat": -33.4937709656528, "lon": 29.774929067244194, "alt_km": 340.34417633606427, "timestamp": "2025-12-13T18:50:03.174487+00:00", "meta": {"OBJECT_NAME": "STARLINK-35717", "OBJECT_ID": "2025-280U", "EPOCH": "2025-12-13T04:14:01.222656", "MEAN_MOTION": 15.78966299, "ECCENTRICITY": 0.00046389, "INCLINATION": 69.9923, "RA_OF_ASC_NODE": 197.5536, "ARG_OF_PERICENTER": 272.6854, "MEAN_ANOMALY": 87.3815, "EPHEMERIS_TYPE": 0, "CLASSIFICATION_TYPE": "U", "NORAD_CAT_ID": 66839, "ELEMENT_SET_NO": 999, "REV_AT_EPOCH": 299, "BSTAR": -0.0050175653, "MEAN_MOTION_DOT": -0.00812964, "MEAN_MOTION_DDOT": 0}, "tle": {"line1": "1 66839U 25280U   25347.17640304 -.00812964  00000+0 -50176-2 0  9997", "line2": "2 66839  69.9923 197.5536 0004638 272.6854  87.3815 15.78966299  2997"}}, "geometry": {"type": "Point", "coordinates": [29.774929067244194, -33.4937709656528]}}, {"type": "Feature", "properties": {"norad_id": 66840, "name": "STARLINK-35837", "group": "last-30-days", "lat": -36.720628259864135, "lon": 31.591687070698367, "alt_km": 341.3067870716495, "timestamp": "2025-12-13T18:50:03.174497+00:00", "meta": {"OBJECT_NAME": "STARLINK-35837", "OBJECT_ID": "2025-280V", "EPOCH": "2025-12-13T07:15:32.982912", "MEAN_MOTION": 15.78537202, "ECCENTRICITY": 0.00035267, "INCLINATION": 69.9917, "RA_OF_ASC_NODE": 197.1916, "ARG_OF_PERICENTER": 287.9099, "MEAN_ANOMALY": 72.1717, "EPHEMERIS_TYPE": 0, "CLASSIFICATION_TYPE": "U", "NORAD_CAT_ID": 66840, "ELEMENT_SET_NO": 999, "REV_AT_EPOCH": 301, "BSTAR": -0.00369747, "MEAN_MOTION_DOT": -0.00601668, "MEAN_MOTION_DDOT": 0}, "tle": {"line1": "1 66840U 25280V   25347.30246508 -.00601668  00000+0 -36975-2 0  9990", "line2": "2 66840  69.9917 197.1916 0003526 287.9099  72.1717 15.78537202  3010"}}, "geometry": {"type": "Point", "coordinates": [31.591687070698367, -36.720628259864135]}}, {"type": "Feature", "properties": {"norad_id": 66841, "name": "STARLINK-35715", "group": "last-30-days", "lat": -38.50815008701615, "lon": 32.67078213022402, "alt_km": 341.11489066183003, "timestamp": "2025-12-13T18:50:03.174507+00:00", "meta": {"OBJECT_NAME": "STARLINK-35715", "OBJECT_ID": "2025-280W", "EPOCH": "2025-12-13T07:15:02.342880", "MEAN_MOTION": 15.78534616, "ECCENTRICITY": 0.00038429, "INCLINATION": 69.9916, "RA_OF_ASC_NODE": 197.1897, "ARG_OF_PERICENTER": 283.3028, "MEAN_ANOMALY": 76.7743, "EPHEMERIS_TYPE": 0, "CLASSIFICATION_TYPE": "U", "NORAD_CAT_ID": 66841, "ELEMENT_SET_NO": 999, "REV_AT_EPOCH": 301, "BSTAR": -0.0038281497, "MEAN_MOTION_DOT": -0.00621537, "MEAN_MOTION_DDOT": 0}, "tle": {"line1": "1 66841U 25280W   25347.30211045 -.00621537  00000+0 -38281-2 0  9998", "line2": "2 66841  69.9916 197.1897 0003842 283.3028  76.7743 15.78534616  3016"}}, "geometry": {"type": "Point", "coordinates": [32.67078213022402, -38.50815008701615]}}, {"type": "Feature", "properties": {"norad_id": 66842, "name": "STARLINK-35769", "group": "last-30-days", "lat": -40.222574245491664, "lon": 33.76270530341769, "alt_km": 341.06759117810907, "timestamp": "2025-12-13T18:50:03.174517+00:00", "meta": {"OBJECT_NAME": "STARLINK-35769", "OBJECT_ID": "2025-280X", "EPOCH": "2025-12-13T07:14:33.420480", "MEAN_MOTION": 15.78543581, "ECCENTRICITY": 0.00038418, "INCLINATION": 69.9927, "RA_OF_ASC_NODE": 197.188, "ARG_OF_PERICENTER": 282.3393, "MEAN_ANOMALY": 77.7376, "EPHEMERIS_TYPE": 0, "CLASSIFICATION_TYPE": "U", "NORAD_CAT_ID": 66842, "ELEMENT_SET_NO": 999, "REV_AT_EPOCH": 301, "BSTAR": -0.0038459826, "MEAN_MOTION_DOT": -0.00624473, "MEAN_MOTION_DDOT": 0}, "tle": {"line1": "1 66842U 25280X   25347.30177570 -.00624473  00000+0 -38460-2 0  9994", "line2": "2 66842  69.9927 197.1880 0003841 282.3393  77.7376 15.78543581  3018"}}, "geometry": {"type": "Point", "coordinates": [33.76270530341769, -40.222574245491664]}}, {"type": "Feature", "properties": {"norad_id": 66843, "name": "STARLINK-35997", "group": "last-30-days", "lat": -43.69902675670526, "lon": 36.187210109273316, "alt_km": 341.181041783796, "timestamp": "2025-12-13T18:50:03.174529+00:00", "meta": {"OBJECT_NAME": "STARLINK-35997", "OBJECT_ID": "2025-280Y", "EPOCH": "2025-12-13T07:13:33.246336", "MEAN_MOTION": 15.78538917, "ECCENTRICITY": 0.00039783, "INCLINATION": 69.9916, "RA_OF_ASC_NODE": 197.1852, "ARG_OF_PERICENTER": 284.3689, "MEAN_ANOMALY": 75.707, "EPHEMERIS_TYPE": 0, "CLASSIFICATION_TYPE": "U", "NORAD_CAT_ID": 66843, "ELEMENT_SET_NO": 999, "REV_AT_EPOCH": 301, "BSTAR": -0.0040014406, "MEAN_MOTION_DOT": -0.00647881, "MEAN_MOTION_DDOT": 0}, "tle": {"line1": "1 66843U 25280Y   25347.30107924 -.00647881  00000+0 -40014-2 0  9997", "line2": "2 66843  69.9916 197.1852 0003978 284.3689  75.7070 15.78538917  3013"}}, "geometry": {"type": "Point", "coordinates": [36.187210109273316, -43.69902675670526]}}, {"type": "Feature", "properties": {"norad_id": 66844, "name": "STARLINK-36073", "group": "last-30-days", "lat": -42.071577708336, "lon": 35.01473467210249, "alt_km": 341.23824765821064, "timestamp": "2025-12-13T18:50:03.174548+00:00", "meta": {"OBJECT_NAME": "STARLINK-36073", "OBJECT_ID": "2025-280Z", "EPOCH": "2025-12-13T07:14:01.700448", "MEAN_MOTION": 15.78538718, "ECCENTRICITY": 0.00038633, "INCLINATION": 69.9919, "RA_OF_ASC_NODE": 197.1864, "ARG_OF_PERICENTER": 286.7901, "MEAN_ANOMALY": 73.2875, "EPHEMERIS_TYPE": 0, "CLASSIFICATION_TYPE": "U", "NORAD_CAT_ID": 66844, "ELEMENT_SET_NO": 999, "REV_AT_EPOCH": 298, "BSTAR": -0.0038229643, "MEAN_MOTION_DOT": -0.00620864, "MEAN_MOTION_DDOT": 0}, "tle": {"line1": "1 66844U 25280Z   25347.30140857 -.00620864  00000+0 -38230-2 0  9999", "line2": "2 66844  69.9919 197.1864 0003863 286.7901  73.2875 15.78538718  2986"}}, "geometry": {"type": "Point", "coordinates": [35.01473467210249, -42.071577708336]}}]}